STARLINK-11213 [DTC]    
1 60309U 24133J   25186.69298030  .00000709  00000+0  10715-4 0  9993
2 60309  53.1599 283.5937 0001472  62.7855 297.3312 15.69716890 54947
STARLINK-11200 [DTC]    
1 60310U 24133K   25186.56075545  .00029443  00000+0  24683-3 0  9999
2 60310  53.1575 284.1904 0000961 132.8061 227.3037 15.69728307 54925
STARLINK-11206 [DTC]    
1 60312U 24133M   25186.55102750  .00000953  00000+0  12717-4 0  9990
2 60312  53.1588 284.8540 0000874  97.5194 262.5923 15.69713385 54915
STARLINK-11205 [DTC]    
1 60313U 24133N   25186.67346014  .00000541  00000+0  93161-5 0  9993
2 60313  53.1589 284.1930 0000889  63.4514 296.6595 15.69713170 54934
STARLINK-32191          
1 60314U 24133P   25186.80791753 -.00000163  00000+0  66092-5 0  9997
2 60314  53.1608   3.6572 0001236  87.7172 272.3970 15.30192764 53844
STARLINK-32194          
1 60315U 24133Q   25186.88800623 -.00000029  00000+0  11132-4 0  9998
2 60315  53.1615   3.4503 0001166  87.9580 272.1554 15.30194319 53891
STARLINK-32192          
1 60316U 24133R   25186.78575739  .00000378  00000+0  24903-4 0  9991
2 60316  53.1610   3.5229 0001049  82.1510 277.9610 15.30193570 53932
STARLINK-32189          
1 60317U 24133S   25186.88589812  .00003648  00000+0  13535-3 0  9991
2 60317  53.1615   3.4375 0001339  84.0763 276.0390 15.30174278 53942
STARLINK-32190          
1 60318U 24133T   25186.81108429  .00000343  00000+0  23700-4 0  9991
2 60318  53.1615   3.6774 0001165  91.6035 268.5099 15.30187871 53845
STARLINK-32182          
1 60319U 24133U   25186.88694967  .00000333  00000+0  23376-4 0  9994
2 60319  53.1615   3.4453 0001278  87.5775 272.5372 15.30193522 53904
STARLINK-32199          
1 60320U 24133V   25186.81425084 -.00000015  00000+0  11604-4 0  9990
2 60320  53.1604   3.6991 0001088  86.1223 273.9902 15.30188417 53849
STARLINK-32198          
1 60321U 24133W   25186.88906121  .00000288  00000+0  21835-4 0  9992
2 60321  53.1617   3.4552 0001129  81.5724 278.5405 15.30191559 53947
STARLINK-31745          
1 60329U 24136A   25187.14961732  .00000074  00000+0  14628-4 0  9997
2 60329  53.1593 141.1465 0001331  92.6105 267.5048 15.30195131 53112
STARLINK-32153          
1 60330U 24136B   25186.29946961 -.00001685  00000+0 -44792-4 0  9997
2 60330  53.1593 145.0823 0001080 101.6306 258.4816 15.30201843 51781
STARLINK-32203          
1 60331U 24136C   25186.26368132 -.00000031  00000+0  11071-4 0  9990
2 60331  53.1588 134.9151 0001358  86.0231 274.0925 15.30190241 51928
STARLINK-32171          
1 60332U 24136D   25186.90302231  .00000510  00000+0  29351-4 0  9991
2 60332  53.1597 141.7497 0001193  88.8401 271.2736 15.30191621 52893
STARLINK-32133          
1 60333U 24136E   25186.88097076  .00000078  00000+0  14754-4 0  9997
2 60333  53.1599 142.3140 0001515  91.7387 268.3787 15.30192723 51876
STARLINK-32132          
1 60334U 24136F   25187.07059978  .00001209  00000+0  52969-4 0  9996
2 60334  53.1607 141.3659 0001637  90.5745 269.5443 15.30176584 52961
STARLINK-32168          
1 60335U 24136G   25187.06741835 -.00000140  00000+0  74012-5 0  9994
2 60335  53.1601 141.3421 0001263  85.6150 274.4995 15.30191470 53063
STARLINK-32079          
1 60336U 24136H   25187.19488163 -.00000305  00000+0  18144-5 0  9998
2 60336  53.1599 140.7156 0001341  87.7264 272.3890 15.30191845 53139
STARLINK-32078          
1 60338U 24136K   25186.86408983 -.00000446  00000+0 -29202-5 0  9999
2 60338  53.1603 142.2057 0001281  86.1778 273.9370 15.30187701 51875
STARLINK-32175          
1 60339U 24136L   25187.18855215 -.00000467  00000+0 -36398-5 0  9997
2 60339  53.1601 140.6743 0001237  83.1183 276.9958 15.30188657 53098
STARLINK-32176          
1 60340U 24136M   25186.85881582 -.00000834  00000+0 -16064-4 0  9993
2 60340  53.1597 142.1688 0001118 108.5962 251.5160 15.30184568 53040
STARLINK-32185          
1 60341U 24136N   25187.17799538  .00000068  00000+0  14414-4 0  9993
2 60341  53.1601 140.6061 0001220 101.7084 258.4054 15.30195138 53086
STARLINK-32221          
1 60342U 24136P   25187.18116225 -.00000400  00000+0 -13863-5 0  9991
2 60342  53.1597 140.6258 0001252 122.9757 237.1364 15.30190756 53030
STARLINK-32083          
1 60343U 24136Q   25187.18221285 -.00000140  00000+0  74036-5 0  9994
2 60343  53.1597 140.5991 0001220 103.8913 256.2224 15.30192700 52870
STARLINK-32077          
1 60344U 24136R   25187.10951752  .00000144  00000+0  17005-4 0  9991
2 60344  53.1603 140.8901 0001202  98.2379 261.8758 15.30190860 53078
STARLINK-32075          
1 60345U 24136S   25187.17060958 -.00000316  00000+0  14565-5 0  9999
2 60345  53.1606 140.5540 0001308  87.9178 272.1973 15.30196076 53087
STARLINK-32082          
1 60346U 24136T   25186.91040866  .00002655  00000+0  10178-3 0  9998
2 60346  53.1617 141.7799 0001408 104.2204 255.8953 15.30181587 51886
STARLINK-32084          
1 60347U 24136U   25186.18878208 -.00002285  00000+0 -65038-4 0  9994
2 60347  53.1600 145.1000 0001224  91.8739 268.2402 15.30199305 51774
STARLINK-32081          
1 60348U 24136V   25186.90407736 -.00000156  00000+0  68572-5 0  9990
2 60348  53.1597 141.7385 0001188  89.4246 270.6890 15.30190508 51889
STARLINK-32181          
1 60349U 24136W   25187.15585194 -.00000626  00000+0 -89936-5 0  9994
2 60349  53.1594 140.4653 0001583  85.9103 274.2078 15.30186523 52873
STARLINK-32076          
1 60350U 24136X   25187.15899936  .00000622  00000+0  33138-4 0  9994
2 60350  53.1594 140.4850 0001245  75.2297 284.8841 15.30196544 53088
STARLINK-32097          
1 60351U 24136Y   25187.15266856 -.00000044  00000+0  10630-4 0  9995
2 60351  53.1594 140.4452 0001271  81.0188 279.0956 15.30194297 53132
STARLINK-32285          
1 60355U 24138A   25186.80840527  .00001191  00000+0  52358-4 0  9991
2 60355  53.1617  16.0157 0001250  81.5586 278.5556 15.30191808 52837
STARLINK-32278          
1 60356U 24138B   25186.80534951  .00000531  00000+0  30040-4 0  9994
2 60356  53.1619  16.6983 0001084  85.7267 274.3858 15.30194073 52814
STARLINK-32287          
1 60358U 24138D   25186.93281420  .00000281  00000+0  21612-4 0  9997
2 60358  53.1607  16.0808 0001239  78.8203 281.2937 15.30193238 52848
STARLINK-32290          
1 60359U 24138E   25186.80429914  .00000283  00000+0  21667-4 0  9998
2 60359  53.1616  16.7019 0001188  85.9933 274.1203 15.30192766 33854
STARLINK-32275          
1 60360U 24138F   25186.90537878 -.00000222  00000+0  46396-5 0  9991
2 60360  53.1619  15.9058 0001159  97.9729 262.1403 15.30187845 52848
STARLINK-32227          
1 60361U 24138G   25186.79796273 -.00000143  00000+0  73104-5 0  9994
2 60361  53.1612  16.6474 0001212  81.6621 278.4517 15.30191320 52831
STARLINK-32256          
1 60362U 24138H   25186.80324371 -.00000987  00000+0 -21220-4 0  9991
2 60362  53.1610  16.6830 0001156  73.3668 286.7459 15.30186853 52812
STARLINK-32267          
1 60363U 24138J   25186.79268789  .00000402  00000+0  25703-4 0  9990
2 60363  53.1610  16.6232 0001095  85.1370 274.9756 15.30190640 52821
STARLINK-32270          
1 60364U 24138K   25186.91487462 -.00000075  00000+0  95818-5 0  9998
2 60364  53.1607  15.9685 0001075  86.0114 274.1010 15.30191930 52712
STARLINK-32188          
1 60365U 24138L   25186.90854344 -.00000325  00000+0  11508-5 0  9997
2 60365  53.1610  15.9256 0001132  94.7762 265.3368 15.30189380 52848
STARLINK-32230          
1 60366U 24138M   25186.79057715  .00000108  00000+0  15791-4 0  9997
2 60366  53.1606  16.6113 0001223  92.4048 267.7093 15.30190730 52827
STARLINK-32243          
1 60367U 24138N   25186.91065434 -.00000137  00000+0  75184-5 0  9995
2 60367  53.1611  15.9374 0001226  92.8790 267.2351 15.30187595 52845
STARLINK-32271          
1 60368U 24138P   25186.80007552  .00000172  00000+0  17933-4 0  9996
2 60368  53.1617  16.6726 0001289  80.8781 279.2366 15.30192045 52820
STARLINK-32266          
1 60369U 24138Q   25186.88274107 -.00000396  00000+0 -12453-5 0  9990
2 60369  53.1615   3.4713 0001194  90.6880 269.4258 15.30191296 53013
STARLINK-32220          
1 60370U 24138R   25186.91698379  .00000114  00000+0  15960-4 0  9998
2 60370  53.1609  15.9757 0001179  86.6234 273.4901 15.30192644 52843
STARLINK-32263          
1 60371U 24138S   25186.81157300 -.00000517  00000+0 -53367-5 0  9995
2 60371  53.1620  16.0331 0001200  93.8860 266.2278 15.30192676 52737
STARLINK-32268          
1 60372U 24138T   25186.93175807  .00000518  00000+0  29604-4 0  9996
2 60372  53.1612  16.0699 0001282  84.3959 275.7188 15.30194629 52847
STARLINK-32223          
1 60373U 24138U   25186.84639841 -.00001537  00000+0 -39788-4 0  9998
2 60373  53.1612  16.2485 0001208  86.9566 273.1573 15.30180517 52732
STARLINK-32180          
1 60374U 24138V   25186.91381886  .00000203  00000+0  18993-4 0  9992
2 60374  53.1608  15.9553 0001158  90.1006 270.0127 15.30189163 52849
STARLINK-32281          
1 60375U 24138W   25186.82107555 -.00002388  00000+0 -68569-4 0  9994
2 60375  53.1615  16.0904 0001090  85.7697 274.3429 15.30181226 52733
STARLINK-32277          
1 60376U 24138X   25186.92014996 -.00000386  00000+0 -89111-6 0  9996
2 60376  53.1607  15.9932 0001267  84.4291 275.6854 15.30192604 52846
STARLINK-32269          
1 60377U 24138Y   25186.90432050 -.00000236  00000+0  41691-5 0  9993
2 60377  53.1615  15.8937 0001222  87.8419 272.2722 15.30194275 52832
STARLINK-11228 [DTC]    
1 60398U 24141A   25186.53140169  .00000229  00000+0  67510-5 0  9995
2 60398  53.1590 224.6799 0001418 139.6105 220.5018 15.69708380 52876
STARLINK-11182 [DTC]    
1 60399U 24141B   25186.51669363  .00000570  00000+0  95712-5 0  9990
2 60399  53.1598 224.5812 0001378  90.4703 269.6473 15.69700429 52924
STARLINK-11234 [DTC]    
1 60400U 24141C   25187.08480664 -.00004813  00000+0 -34850-4 0  9992
2 60400  53.1587 221.7282 0001192  94.6549 265.4605 15.69735070 52968
